ONEWEB-0624             
1 55165U 23004AB  24064.24665000  .00000495  00000+0  13411-2 0  9999
2 55165  87.9044 156.8080 0002138 112.2818 247.8538 13.12441952 58531
ONEWEB-0625             
1 55166U 23004AC  24064.31702612  .00000093  00000+0  20556-3 0  9992
2 55166  87.9265 171.9583 0002098  99.1915 260.9454 13.17651022 57638
ONEWEB-0626             
1 55167U 23004AD  24064.23158701  .00000100  00000+0  22513-3 0  9992
2 55167  87.9264 171.9764 0001321 120.0559 240.0703 13.17651551 57627
ONEWEB-0627             
1 55168U 23004AE  24064.52426206 -.00000042  00000+0 -14059-3 0  9996
2 55168  87.9264 171.9196 0002215 128.0026 232.1305 13.17650101 57661
ONEWEB-0628             
1 55169U 23004AF  24064.22440752  .00000066  00000+0  14758-3 0  9996
2 55169  87.9043 156.8034 0002485 116.0720 244.0664 13.12443641 58516
ONEWEB-0629             
1 55170U 23004AG  24064.51951862 -.00000057  00000+0 -18120-3 0  9998
2 55170  87.9260 171.9156 0002437 107.4619 252.6779 13.17650626 57665
ONEWEB-0631             
1 55171U 23004AH  24063.77661211  .00000111  00000+0  24846-3 0  9993
2 55171  87.9228 141.6849 0001533 124.0083 236.1195 13.18686706 59579
ONEWEB-0709             
1 55172U 23004AJ  24064.36384994 -.00000338  00000+0 -98836-3 0  9993
2 55172  87.9028 187.0789 0000691 129.4155 230.7034 13.11418335 56469
